#dP2022  3 25  0  0  0.00000000      96 __u+U ITR00 EXT  IAC
## 2202 432000.00000000   900.00000000 59663 0.0000000000000
+  116   C06C07C08C09C10C11C12C13C14C16C19C20C21C22C23C24C25
+        C26C27C28C29C30C32C33C34C35C36C37C38C39C40C41C42C43
+        C44C45C46E01E02E03E04E05E07E08E10E11E12E13E14E15E18
+        E19E21E24E25E26E27E30E31E33E34E36G01G02G03G04G05G06
+        G07G08G09G10G11G12G13G14G15G16G17G18G19G20G21G22G23
+        G24G25G26G27G28G29G30G31G32J01J02J03R01R02R03R04R05
+        R07R08R09R12R13R14R15R17R18R19R20R21R22R24  0  0  0
++         0  0  0  0  0  0  0  0  0  0  0  0  0  0  0  0  0
++         0  0  0  0  0  0  0  0  0  0  0  0  0  0  0  0  0
++         0  0  0  0  0  0  0  0  0  0  0  0  0  0  0  0  0
++         0  0  0  0  0  0  0  0  0  0  0  0  0  0  0  0  0
++         0  0  0  0  0  0  0  0  0  0  0  0  0  0  0  0  0
++         0  0  0  0  0  0  0  0  0  0  0  0  0  0  0  0  0
++         0  0  0  0  0  0  0  0  0  0  0  0  0  0  0  0  0
%c M  cc GPS ccc cccc cccc cccc cccc ccccc ccccc ccccc ccccc
%c cc cc ccc ccc cccc cccc cccc cccc ccccc ccccc ccccc ccccc
%f  0.0000000  0.000000000  0.00000000000  0.000000000000000
%f  0.0000000  0.000000000  0.00000000000  0.000000000000000
%i    0    0    0    0      0      0      0      0         0
%i    0    0    0    0      0      0      0      0         0
/* IAC                                ULTRA-RAPID PREDICTION
/* S/V CLOCKS ARE ALIGNED TO GNSS TIME                      
/* G:C1WC2W R:C1PC2P E:C1XC5X C:C2IC6I J:C1CC2S             
/* PCV:IGS14_2196 OL/AL:FES2004  NONE     YN ORB:CoN CLK:CoN
*  2022 03 25 20 45  0.00000000
PC06  -2472.014598  28277.147010  31250.553629   -325.019081
PC07 -18188.884195  29677.977583 -23888.963112     89.600750
PC08 -10611.712280  40386.391337  -5247.472931    219.397548
PC09   7996.524704  33368.828202  25163.290500   -637.101070
PC10 -10333.257940  29862.678054 -27861.709109    138.040720
PC11 -23026.211970  -9746.143599 -12353.510804    251.530466
PC12 -18406.382910 -20404.150431   4913.394838   -633.471144
PC13  -4193.571648  41639.239344   4022.274332    -79.381426
PC14 -25655.124992   1263.011112 -10950.426022    452.762165
PC16  -3778.479902  26986.023695  32400.813379    108.601993
PC19  26586.603816  -8219.533309   1972.838947    883.612142
PC20  21549.197080   4690.725009  17101.966780   -856.790838
PC21  -3238.950133 -15589.799975 -22893.052610   -907.428077
PC22  16411.894190 -16876.584444 -14957.206962   -962.798636
PC23 -10629.545552  24401.805130   8376.004057   -939.179164
PC24 -12667.275347 -13642.291850  20781.684832   -948.585584
PC25 -16410.326369   9158.731273  20612.757929   -760.594304
PC26  -2790.792208 -26074.888649   9581.684515    761.024521
PC27  11605.987014  21900.743061 -12863.460381    697.585287
PC28  -5966.445342  15414.754079 -22483.334640     47.675057
PC29  20508.314896   -326.637152  18917.289194    532.504178
PC30  23046.273595  15335.845194   3635.106169    495.800425
PC32   3292.359107  15622.586203  22909.884696   -966.352391
PC33 -26557.588965   8365.879214  -1988.404595   -970.857426
PC34 -23249.712190 -14705.397982  -4606.721293   -440.260222
PC35   6343.981692 -15090.770723  22586.238223    198.713925
PC36  16654.316052  -8246.002500 -20801.189488   -957.953552
PC37   1424.313894  26496.269407  -8593.666167   -934.664414
PC38 -14191.774224  37809.107509 -11821.864243    220.510848
PC39  -9346.197377  22898.398424  34184.743002     34.896115
PC40 -24742.508584  24007.957689 -24399.272495    255.331873
PC41 -16721.905101  16904.308482  14664.392677   -964.368130
PC42 -20928.793396  -5332.577930 -17632.865152   -942.047780
PC43 -20888.958966   -248.977222 -18498.165704   -933.903691
PC44 -12133.414224 -21506.515581  12951.224572    606.538659
PC45  10438.037502 -24568.859060  -8179.591733    714.193495
PC46  13233.800857  12054.825390 -21401.030325   -236.967063
PE01  11856.984453 -25129.324321  10214.573160   -603.766330
PE02 -11705.623977  25119.725118 -10376.057330    288.594613
PE03  -4529.743340  16516.347622  24145.330636   -541.153251
PE04 -17018.724338 -15894.045653 -18262.712403   -992.364895
PE05 -23815.172120   7435.686772  15935.252448   -196.985713
PE07  28975.839394   5855.088352   1445.280326   -651.979014
PE08  17417.935248  15628.242533  18124.908206   -501.251956
PE10 -17026.608193 -20235.002136 -13298.943946   -502.672340
PE11 -18389.385622 -10528.315263 -20665.181689   4136.147594
PE12 -12945.535141 -26268.835886  -4212.495664   4695.523004
PE13  18371.462357  11251.050814  20310.441538    427.552713
PE14 -28971.726372   1148.290320 -13389.224270  -1790.960957
PE15  12936.652396  26318.986714   4073.871250    755.615282
PE18  23216.795842   3776.368065   5860.152821  -1641.627684
PE19   7315.138643 -15720.676956 -23980.765727  -1919.909992
PE21  21864.559917 -18523.614497  -7439.861518   -724.641747
PE24 -19413.996030   -515.221397  22312.753414   -525.170552
PE25 -21922.399466  18339.159911   7678.416614   -568.079132
PE26  12653.924444 -11372.515978  24225.821879   -954.326545
PE27  19976.887690   -866.164441 -21832.532526   -261.360185
PE30   5420.320409  17950.410641 -22912.412698   -377.812871
PE31  -6340.312367 -17172.677479  23264.749451   -494.074801
PE33    118.801391 -25794.159537  14511.058326   -458.230962
PE34     81.919444  25897.850388 -14339.274231   -508.658504
PE36 -12973.521404  10344.689056 -24509.635635   -350.409360
PG01  14166.459907  -3087.546134  21966.173232    400.296309
PG02 -14504.856985 -18220.175210 -11979.914410   -652.636482
PG03  21816.841874 -11072.222575  10094.193017   -179.354165
PG04  23625.506476   -959.041052 -12174.014424   -181.020828
PG05 -17029.521236  -3001.193409 -20361.697062    -75.962658
PG06  -5280.617941 -25967.334163   1049.323063    243.696818
PG07   7341.689748 -19266.776836 -16071.730836    317.753483
PG08  26060.527186   5553.401405   2386.532648    -61.287409
PG09  15547.893858  -9800.312181 -19251.235629   -347.728827
PG10  -7227.958038  20756.941132  14844.594268   -358.077083
PG11 -12714.959180 -19277.412411 -13139.236246    -53.693062
PG12 -22135.030079   6904.435217  12567.490686   -190.381067
PG13 -22596.773783 -13512.925317  -4274.944004    282.956142
PG14   8904.211553 -20784.669358  13866.614829    -97.206291
PG15 -26453.157666  -2619.635243   2423.256273    -74.006607
PG16  13701.171909   8092.234109 -21604.352818   -484.726954
PG17   -926.824271 -15875.357966  21697.553056    591.951376
PG18  -7489.629601  19265.591149 -16623.368622    211.385385
PG19  -9151.559933 -17035.996536  18031.610706    135.774853
PG20      0.000000      0.000000      0.000000    516.145673
PG21  17023.618102   8081.692959  19624.159197    159.798934
PG22  11876.198865  17287.066093  16811.355178    233.109387
PG23 -15974.890367  20589.412187   4849.103548     -9.809273
PG24 -16352.433854  -1031.057833  20669.287742    264.438634
PG25 -19701.723773  17515.148590   1263.618950    303.229076
PG26   4009.520313  17028.052113 -19988.189125    193.639136
PG27  21899.678798  12795.508515  -8744.788648    165.365711
PG28   1255.589004 -18257.802985  19846.476937    374.860794
PG29 -17446.702185   6819.166803 -18903.561697   -495.586220
PG30   1792.606393 -24600.646379  -9447.037068   -520.590111
PG31   6652.711637  25393.086143  -1814.625861   -170.540387
PG32   5265.642385  16453.515603  20361.544447    -91.953464
PJ01 -31979.304376  22578.070571  20565.679539    178.408305
PJ02 -34004.056640  24659.121038   8592.497885     -2.229821
PJ03 -22459.557850  19193.831732 -25499.754376     -1.179546
PR01  -2057.587148 -10856.473033 -22983.863355      7.367505
PR02 -20571.427473  -3734.714587 -14520.427457    513.587555
PR03 -24873.498093   5089.653023   2194.309772     53.730079
PR04 -15284.738531  10671.865642  17439.481414    133.573410
PR05   2729.212308  10505.601364  23099.931906     89.996411
PR07  24810.814433  -5329.945877  -2775.669202     33.081097
PR08  15205.134311 -10786.016896 -17361.967444    -64.253656
PR09   8915.659179   8084.968538 -22484.703761     46.268006
PR12   1540.656423 -21926.898477  12981.092374     17.591825
PR13  -8094.177659  -9163.986046  22366.606716    -19.941994
PR14 -13600.506289  10353.850375  18945.060410     75.800063
PR15 -10783.970861  22685.742560   4453.471682     97.294220
PR17 -14470.408280  -2885.773623 -20808.325233    512.407162
PR18  -3342.957858  11866.294939 -22327.152123    111.465302
PR19   8119.644947  20365.166833 -13043.063698   -182.951232
PR20  17113.960360  17612.004821   7000.319120    -67.404019
PR21  13660.050059   1623.183692  21475.760562   -288.176962
PR22   2805.257936 -12363.401613  22099.993155   -172.846556
PR24 -17707.108275 -16722.800894  -7575.956551     86.055464
EOF
